OBJECT_NAME,OBJECT_ID,EPOCH,MEAN_MOTION,ECCENTRICITY,INCLINATION,RA_OF_ASC_NODE,ARG_OF_PERICENTER,MEAN_ANOMALY,EPHEMERIS_TYPE,CLASSIFICATION_TYPE,NORAD_CAT_ID,ELEMENT_SET_NO,REV_AT_EPOCH,BSTAR,MEAN_MOTION_DOT,MEAN_MOTION_DDOT
SKYSAT-C1,2016-040C,2026-07-05T01:28:23.949120,15.36622026,.0001497,96.9551,216.8145,20.1771,339.9533,0,U,41601,999,56061,.4233E-3,.15073E-3,0
LAPAN-A3,2016-040E,2026-07-05T15:52:52.715136,15.33233837,.0008643,97.1498,182.2020,317.4246,42.6326,0,U,41603,999,55764,.14475072E-3,.4577E-4,0
GAOFEN-3,2016-049A,2026-07-05T14:35:22.165152,14.42218128,.00017053,98.4011,194.1158,90.8434,269.2952,0,U,41727,999,52130,.43377185E-4,.1E-5,0
SKYSAT-C4,2016-058B,2026-07-05T08:34:26.418144,15.49197861,.0002958,96.9168,207.3742,134.2075,225.9421,0,U,41771,999,54828,.45403E-3,.24696E-3,0
SKYSAT-C5,2016-058C,2026-07-05T02:25:18.922944,15.34742244,.0002214,97.0455,225.9434,182.6426,177.4806,0,U,41772,999,54649,.38008E-3,.12733E-3,0
SKYSAT-C2,2016-058D,2026-07-05T11:47:20.092992,15.42514446,.0002716,97.0162,207.9008,27.4889,332.6502,0,U,41773,999,54787,.37853E-3,.16348E-3,0
SKYSAT-C3,2016-058E,2026-07-05T07:33:20.539584,15.53370393,.0001758,96.8997,216.4719,134.8464,225.2934,0,U,41774,999,54892,.55736E-3,.3523E-3,0
ALSAT-1B,2016-059C,2026-07-05T14:09:54.616608,14.72289837,.00095848,97.7749,194.5598,158.1834,201.9784,0,U,41785,999,52328,.11523433E-3,.681E-5,0
PATHFINDER 1,2016-059E,2026-07-04T23:58:12.996192,14.67685471,.0029234,97.8170,184.4713,146.9941,213.3097,0,U,41787,999,52232,.15958E-3,.867E-5,0
SCATSAT 1,2016-059H,2026-07-05T03:14:34.012896,14.79571066,.0054444,98.1181,250.0859,188.8311,171.1947,0,U,41790,999,10424,.2475E-3,.1843E-4,0
GOKTURK 1A,2016-073A,2026-07-05T15:30:43.210944,14.62788188,.00013748,98.1224,81.0294,79.6332,280.5024,0,U,41875,999,51152,.76989285E-4,.346E-5,0
RESOURCESAT-2A,2016-074A,2026-07-05T15:38:30.108768,14.21607473,.00029367,98.7519,260.0052,47.8140,312.3286,0,U,41877,999,49692,.12896067E-3,.239E-5,0
CARTOSAT-2D,2017-008A,2026-07-05T15:59:18.131712,15.19238855,.00050619,97.4088,245.6267,166.2831,193.8543,0,U,41948,999,52038,.37581166E-3,.7856E-4,0
SENTINEL-2B,2017-013A,2026-07-05T14:22:41.710368,14.30814246,.00012072,98.5684,261.1137,88.3280,271.8041,0,U,42063,999,48727,.1683032E-3,.398E-5,0
CARTOSAT-2E,2017-036C,2026-07-05T14:49:51.972960,15.19316857,.00027715,97.4261,246.1164,220.7963,139.3065,0,U,42767,999,50094,.22542762E-3,.4693E-4,0
FORMOSAT-5,2017-049A,2026-07-05T07:52:30.851040,14.50906012,.0011991,98.2249,261.2346,33.3060,326.8887,0,U,42920,999,46930,.72423E-4,.242E-5,0
SENTINEL-5P,2017-064A,2026-07-05T05:54:38.492640,14.19522229,.0001092,98.7928,128.2493,91.9720,268.1581,0,U,42969,999,45212,.61548E-4,.85E-6,0
SKYSAT-C11,2017-068A,2026-07-05T08:35:23.265024,15.58907151,.0000445,97.4369,335.9940,164.4423,195.6847,0,U,42987,999,48607,.50125E-3,.38861E-3,0
SKYSAT-C10,2017-068B,2026-07-05T08:27:05.065344,15.34973806,.000128,97.4530,323.3818,108.4758,251.6624,0,U,42988,999,48514,.46873E-3,.15835E-3,0
SKYSAT-C9,2017-068C,2026-07-05T08:19:16.417920,15.42037710,.0009276,97.4452,324.4862,76.0472,284.1806,0,U,42989,999,48555,.46293E-3,.19723E-3,0
SKYSAT-C8,2017-068D,2026-07-05T07:05:42.461376,15.37350391,.0001213,97.4548,323.1943,95.8413,264.2969,0,U,42990,999,48509,.42793E-3,.15595E-3,0
SKYSAT-C7,2017-068E,2026-07-05T08:31:03.326304,15.37304786,.0006539,97.4560,324.2451,52.9349,307.2493,0,U,42991,999,48516,.42213E-3,.15369E-3,0
SKYSAT-C6,2017-068F,2026-07-05T08:15:25.239168,15.34296872,.0005198,97.4595,324.1316,102.0763,258.1062,0,U,42992,999,48510,.43423E-3,.14354E-3,0
CARTOSAT-2F,2018-004A,2026-07-05T15:36:48.385728,15.19223604,.00018496,97.4768,246.1050,156.2377,203.8944,0,U,43111,999,47013,.37770525E-3,.7889E-4,0
GAOFEN-1 02,2018-031A,2026-07-05T14:19:19.447104,14.76463888,.00020491,98.0513,249.0719,336.5255,23.5861,0,U,43259,999,44541,.19814094E-3,.1327E-4,0
GAOFEN-1 03,2018-031B,2026-07-05T15:25:17.266944,14.76453185,.00031369,98.0509,248.9737,40.0267,320.1173,0,U,43260,999,44541,.12608084E-3,.826E-5,0
GAOFEN-1 04,2018-031D,2026-07-05T14:50:22.639776,14.76464788,.00017147,98.0514,249.1429,60.7325,299.4055,0,U,43262,999,44540,.25327095E-3,.1711E-4,0
SENTINEL-3B,2018-039A,2026-07-05T05:06:50.233824,14.26740289,.0000921,98.6240,253.4861,117.0798,243.0476,0,U,43437,999,42669,.85603E-4,.164E-5,0
GAOFEN-5 01,2018-043A,2026-07-04T22:35:45.092832,14.60618641,.0002613,98.4581,157.9016,51.4428,308.7005,0,U,43461,999,43428,.10456E-3,.459E-5,0
GAOFEN-6,2018-048A,2026-07-05T18:37:14.277216,14.76374832,.0012061,98.0964,249.4556,109.1890,251.0626,0,U,43484,999,43613,.50539E-5,-.17E-6,0
