SKYSAT-C1               
1 41601U 16040C   26186.06138830  .00015073  00000+0  42330-3 0  9995
2 41601  96.9551 216.8145 0001497  20.1771 339.9533 15.36622026560611
LAPAN-A3                
1 41603U 16040E   26186.66172124  .00004577  00000+0  14475-3 0  9993
2 41603  97.1498 182.2020 0008643 317.4246  42.6326 15.33233837557645
GAOFEN-3                
1 41727U 16049A   26186.60789543  .00000100  00000+0  43377-4 0  9994
2 41727  98.4011 194.1158 0001705  90.8434 269.2952 14.42218128521305
SKYSAT-C4               
1 41771U 16058B   26186.35725021  .00024696  00000+0  45403-3 0  9993
2 41771  96.9168 207.3742 0002958 134.2075 225.9421 15.49197861548285
SKYSAT-C5               
1 41772U 16058C   26186.10091346  .00012733  00000+0  38008-3 0  9995
2 41772  97.0455 225.9434 0002214 182.6426 177.4806 15.34742244546497
SKYSAT-C2               
1 41773U 16058D   26186.49120478  .00016348  00000+0  37853-3 0  9990
2 41773  97.0162 207.9008 0002716  27.4889 332.6502 15.42514446547877
SKYSAT-C3               
1 41774U 16058E   26186.31482106  .00035230  00000+0  55736-3 0  9992
2 41774  96.8997 216.4719 0001758 134.8464 225.2934 15.53370393548928
ALSAT-1B                
1 41785U 16059C   26186.59021547  .00000681  00000+0  11523-3 0  9991
2 41785  97.7749 194.5598 0009584 158.1834 201.9784 14.72289837523289
PATHFINDER 1            
1 41787U 16059E   26185.99876153  .00000867  00000+0  15958-3 0  9999
2 41787  97.8170 184.4713 0029234 146.9941 213.3097 14.67685471522321
SCATSAT 1               
1 41790U 16059H   26186.13511589  .00001843  00000+0  24750-3 0  9994
2 41790  98.1181 250.0859 0054444 188.8311 171.1947 14.79571066104248
GOKTURK 1A              
1 41875U 16073A   26186.64633346  .00000346  00000+0  76989-4 0  9995
2 41875  98.1224  81.0294 0001374  79.6332 280.5024 14.62788188511520
RESOURCESAT-2A          
1 41877U 16074A   26186.65173737  .00000239  00000+0  12896-3 0  9999
2 41877  98.7519 260.0052 0002936  47.8140 312.3286 14.21607473496927
CARTOSAT-2D             
1 41948U 17008A   26186.66618208  .00007856  00000+0  37581-3 0  9994
2 41948  97.4088 245.6267 0005061 166.2831 193.8543 15.19238855520383
SENTINEL-2B             
1 42063U 17013A   26186.59909387  .00000398  00000+0  16830-3 0  9990
2 42063  98.5684 261.1137 0001207  88.3280 271.8041 14.30814246487271
CARTOSAT-2E             
1 42767U 17036C   26186.61796265  .00004693  00000+0  22543-3 0  9998
2 42767  97.4261 246.1164 0002771 220.7963 139.3065 15.19316857500948
FORMOSAT-5              
1 42920U 17049A   26186.32813485  .00000242  00000+0  72423-4 0  9994
2 42920  98.2249 261.2346 0011991  33.3060 326.8887 14.50906012469305
SENTINEL-5P             
1 42969U 17064A   26186.24627885  .00000085  00000+0  61548-4 0  9993
2 42969  98.7928 128.2493 0001092  91.9720 268.1581 14.19522229452126
SKYSAT-C11              
1 42987U 17068A   26186.35790816  .00038861  00000+0  50125-3 0  9995
2 42987  97.4369 335.9940 0000445 164.4423 195.6847 15.58907151486077
SKYSAT-C10              
1 42988U 17068B   26186.35214196  .00015835  00000+0  46873-3 0  9999
2 42988  97.4530 323.3818 0001280 108.4758 251.6624 15.34973806485147
SKYSAT-C9               
1 42989U 17068C   26186.34671780  .00019723  00000+0  46293-3 0  9991
2 42989  97.4452 324.4862 0009276  76.0472 284.1806 15.42037710485550
SKYSAT-C8               
1 42990U 17068D   26186.29563034  .00015595  00000+0  42793-3 0  9993
2 42990  97.4548 323.1943 0001213  95.8413 264.2969 15.37350391485096
SKYSAT-C7               
1 42991U 17068E   26186.35489961  .00015369  00000+0  42213-3 0  9993
2 42991  97.4560 324.2451 0006539  52.9349 307.2493 15.37304786485160
SKYSAT-C6               
1 42992U 17068F   26186.34404212  .00014354  00000+0  43423-3 0  9996
2 42992  97.4595 324.1316 0005198 102.0763 258.1062 15.34296872485108
CARTOSAT-2F             
1 43111U 18004A   26186.65056002  .00007889  00000+0  37771-3 0  9999
2 43111  97.4768 246.1050 0001849 156.2377 203.8944 15.19223604470132
GAOFEN-1 02             
1 43259U 18031A   26186.59675286  .00001327  00000+0  19814-3 0  9995
2 43259  98.0513 249.0719 0002049 336.5255  23.5861 14.76463888445415
GAOFEN-1 03             
1 43260U 18031B   26186.64256096  .00000826  00000+0  12608-3 0  9994
2 43260  98.0509 248.9737 0003136  40.0267 320.1173 14.76453185445419
GAOFEN-1 04             
1 43262U 18031D   26186.61831759  .00001711  00000+0  25327-3 0  9994
2 43262  98.0514 249.1429 0001714  60.7325 299.4055 14.76464788445409
SENTINEL-3B             
1 43437U 18039A   26186.21308141  .00000164  00000+0  85603-4 0  9991
2 43437  98.6240 253.4861 0000921 117.0798 243.0476 14.26740289426692
GAOFEN-5 01             
1 43461U 18043A   26185.94149413  .00000459  00000+0  10456-3 0  9997
2 43461  98.4581 157.9016 0002613  51.4428 308.7005 14.60618641434281
GAOFEN-6                
1 43484U 18048A   26186.77585969 -.00000017  00000+0  50539-5 0  9998
2 43484  98.0964 249.4556 0012061 109.1890 251.0626 14.76374832436138
